1 45384U 20019AA  23028.54639911  .00003112  00000-0  22774-3 0  9991
2 45384  53.0526 206.9623 0001166  93.8057 266.3065 15.06396662158760
1 45384U 20019AA  23028.54639911  .00003112  00000-0  22774-3 0  9991
2 45384  53.0526 206.9623 0001166  93.8057 266.3065 15.06396662158760
1 45384U 20019AA  23028.81178584  .00003384  00000-0  24596-3 0  9990
2 45384  53.0526 205.7708 0001179  93.5324 266.5800 15.06399384158807
1 45384U 20019AA  23029.74064322  .00001935  00000-0  14875-3 0  9996
2 45384  53.0530 201.6014 0001213  90.0983 270.0145 15.06399021158944
1 45384U 20019AA  23029.87333549  .00002159  00000-0  16378-3 0  9999
2 45384  53.0525 201.0050 0001182  91.3645 268.7479 15.06401046158963
1 45384U 20019AA  23030.47045814  .00000999  00000-0  85964-4 0  9990
2 45384  53.0519 198.3239 0001158  91.5467 268.5655 15.06398295159056
1 45384U 20019AA  23030.86853656  .00001693  00000-0  13254-3 0  9998
2 45384  53.0519 196.5373 0001220  86.1629 273.9499 15.06402724159111
1 45384U 20019AA  23030.86853656  .00001693  00000-0  13254-3 0  9998
2 45384  53.0519 196.5373 0001220  86.1629 273.9499 15.06402724159111
1 45384U 20019AA  23031.46566200  .00000461  00000-0  49823-4 0  9995
2 45384  53.0509 193.8570 0001291  77.3986 282.7147 15.06396222159208
1 45384U 20019AA  23031.46566200  .00000461  00000-0  49823-4 0  9995
2 45384  53.0509 193.8570 0001291  77.3986 282.7147 15.06396222159208
1 45384U 20019AA  23031.86374391  .00000808  00000-0  73109-4 0  9996
2 45384  53.0522 192.0700 0001255  77.4478 282.6651 15.06396839159265
1 45384U 20019AA  23032.12913574  .00002531  00000-0  18882-3 0  9999
2 45384  53.0523 190.8785 0001302  83.1307 276.9830 15.06387878159306
1 45384U 20019AA  23032.46086416  .00000749  00000-0  69160-4 0  9997
2 45384  53.0520 189.3887 0001260  85.3216 274.7916 15.06398314159358
1 45384U 20019AA  23032.46086416  .00000749  00000-0  69160-4 0  9997
2 45384  53.0520 189.3887 0001260  85.3216 274.7916 15.06398314159358
1 45384U 20019AA  23033.45607104  .00000252  00000-0  35838-4 0  9994
2 45384  53.0520 184.9202 0001242  85.7491 274.3640 15.06394061159501
1 45384U 20019AA  23033.85414953  .00000687  00000-0  64980-4 0  9998
2 45384  53.0526 183.1339 0001309  81.2245 278.8892 15.06397852159566
1 45384U 20019AA  23034.45127420  .00000714  00000-0  66838-4 0  9990
2 45384  53.0520 180.4527 0001187  86.4338 273.6787 15.06394141159657
1 45384U 20019AA  23034.78300632  .00000803  00000-0  72809-4 0  9998
2 45384  53.0514 178.9625 0001436  93.1026 267.0127 15.06398060159702
1 45384U 20019AA  23035.57916704  .00002244  00000-0  16949-3 0  9992
2 45384  53.0514 175.3886 0001069  85.9752 274.1359 15.06396328159823
1 45384U 20019AA  23035.77820515  .00001084  00000-0  91619-4 0  9997
2 45384  53.0524 174.4956 0001182  87.6626 272.4498 15.06403144159850
1 45384U 20019AA  23036.57437413  .00000596  00000-0  58897-4 0  9995
2 45384  53.0518 170.9205 0001386  96.5054 263.6093 15.06395752159972
1 45384U 20019AA  23036.77341378  .00000461  00000-0  49866-4 0  9998
2 45384  53.0528 170.0280 0001300  91.9768 268.1370 15.06398035160005
1 45384U 20019AA  23036.77341378  .00000461  00000-0  49866-4 0  9998
2 45384  53.0528 170.0280 0001300  91.9768 268.1370 15.06398035160005
1 45384U 20019AA  23037.56957169  .00001524  00000-0  12114-3 0  9993
2 45384  53.0524 166.4534 0001268  95.1077 265.0056 15.06403006160129
1 45384U 20019AA  23037.76860587  .00001894  00000-0  14597-3 0  9999
2 45384  53.0529 165.5599 0001161  99.0023 261.1098 15.06411516160152
1 45384U 20019AA  23037.76860587  .00001894  00000-0  14597-3 0  9999
2 45384  53.0529 165.5599 0001161  99.0023 261.1098 15.06411516160152
1 45384U 20019AA  23038.56477103  .00002655  00000-0  19704-3 0  9997
2 45384  53.0521 161.9839 0001462 114.9329 245.1812 15.06406809160279
1 45384U 20019AA  23038.63111556  .00003078  00000-0  22540-3 0  9994
2 45384  53.0527 161.6855 0001461 119.2823 240.8313 15.06410545160287
1 45384U 20019AA  23038.69746367  .00004312  00000-0  30811-3 0  9996
2 45384  53.0551 161.3961 0001349  90.7436 269.3707 15.06412792160297
1 45384U 20019AA  23039.55997598 -.00002294  00000-0 -13517-3 0  9999
2 45384  53.0533 157.5202 0001553  92.6148 267.5019 15.06396377160421
1 45384U 20019AA  23039.62632312 -.00000431  00000-0 -10007-4 0  9990
2 45384  53.0554 157.2250 0001597  95.7938 264.3233 15.06399931160436
1 45384U 20019AA  23039.69266827  .00001307  00000-0  10662-3 0  9998
2 45384  53.0544 156.9260 0001700  96.3376 263.7806 15.06404995160448
1 45384U 20019AA  23040.28979639 -.00000311  00000-0 -19810-5 0  9999
2 45384  53.0528 154.2438 0001554  90.5177 269.5990 15.06391492160535
1 45384U 20019AA  23040.48883556  .00000866  00000-0  77042-4 0  9996
2 45384  53.0537 153.3505 0001575  96.9844 263.1324 15.06397898160564
1 45384U 20019AA  23040.82056599  .00013600  00000-0  92978-3 0  9997
2 45384  53.0527 151.8590 0001406  89.3477 270.7673 15.06415065160615
1 45384U 20019AA  23041.01961365  .00003832  00000-0  27603-3 0  9994
2 45384  53.0531 150.9670 0001573  98.7924 261.3244 15.06395035160642
1 45384U 20019AA  23041.61673447  .00017167  00000-0  11681-2 0  9995
2 45384  53.0523 148.2868 0001612  98.7724 261.3448 15.06414641160735
1 45384U 20019AA  23041.81578663  .00027760  00000-0  18751-2 0  9996
2 45384  53.0523 147.3934 0003673  58.5094 301.6254 15.06398746160765
1 45384U 20019AA  23042.01481638  .00000080  00000-0  24253-4 0  9996
2 45384  53.0521 146.5000 0000422  88.8764 271.2273 15.06393033160797
1 45384U 20019AA  23042.01481638  .00000080  00000-0  24253-4 0  9996
2 45384  53.0521 146.5000 0000422  88.8764 271.2273 15.06393033160797
1 45384U 20019AA  23042.74463350  .00049509  00000-0  33163-2 0  9994
2 45384  53.0513 143.2220 0001428  84.5885 275.5267 15.06434440160901
1 45384U 20019AA  23042.74463350  .00049509  00000-0  33163-2 0  9994
2 45384  53.0513 143.2220 0001428  84.5885 275.5267 15.06434440160901
1 45384U 20019AA  23043.27541701  .00050838  00000-0  34064-2 0  9998
2 45384  53.0518 140.8402 0002636  67.9558 292.1711 15.06409012160989
1 45384U 20019AA  23043.27541701  .00050838  00000-0  34064-2 0  9998
2 45384  53.0518 140.8402 0002636  67.9558 292.1711 15.06409012160989
1 45384U 20019AA  23043.73984060  .00035555  00000-0  23922-2 0  9998
2 45384  53.0534 138.7575 0001842  61.5039 298.6136 15.06424683161058
1 45384U 20019AA  23044.27061199  .00028307  00000-0  19105-2 0  9992
2 45384  53.0526 136.3712 0001420  94.3724 265.7427 15.06422251161139
1 45384U 20019AA  23044.27061199  .00028307  00000-0  19105-2 0  9992
2 45384  53.0526 136.3712 0001420  94.3724 265.7427 15.06422251161139
1 45384U 20019AA  23044.93407453  .00035040  00000-0  23573-2 0  9998
2 45384  53.0534 133.3940 0000587  41.9005 318.2028 15.06435967161231
1 45384U 20019AA  23045.26581268  .00014461  00000-0  98784-3 0  9993
2 45384  53.0529 131.9035 0001019  72.7784 287.3317 15.06394267161280
1 45384U 20019AA  23045.53120169  .00038707  00000-0  26024-2 0  9998
2 45384  53.0528 130.7136 0001254  80.7175 279.3955 15.06412165161324
1 45384U 20019AA  23045.53120169  .00038707  00000-0  26024-2 0  9998
2 45384  53.0528 130.7136 0001254  80.7175 279.3955 15.06412165161324
1 45384U 20019AA  23046.52640551  .00018461  00000-0  12546-2 0  9999
2 45384  53.0528 126.2481 0001708  87.7366 272.3818 15.06411235161474
1 45384U 20019AA  23046.72543905  .00027972  00000-0  18873-2 0  9992
2 45384  53.0528 125.3493 0001775  77.7672 282.3516 15.06439087161505
1 45384U 20019AA  23046.72543905  .00027972  00000-0  18873-2 0  9992
2 45384  53.0528 125.3493 0001775  77.7672 282.3516 15.06439087161505
1 45384U 20019AA  23047.52159910  .00039030  00000-0  26224-2 0  9997
2 45384  53.0535 121.7773 0001591  72.3663 287.7500 15.06432282161626
1 45384U 20019AA  23047.52159910  .00039030  00000-0  26224-2 0  9997
2 45384  53.0535 121.7773 0001591  72.3663 287.7500 15.06432282161626
1 45384U 20019AA  23048.18507642  .00044069  00000-0  29595-2 0  9991
2 45384  53.0535 118.7973 0001722 111.6502 248.4671 15.06393320161722
1 45384U 20019AA  23048.45046763  .00026977  00000-0  18240-2 0  9996
2 45384  53.0533 117.6062 0000659  72.4851 287.6210 15.06379924161768
1 45384U 20019AA  23048.45046763  .00026977  00000-0  18240-2 0  9996
2 45384  53.0533 117.6062 0000659  72.4851 287.6210 15.06379924161768
1 45384U 20019AA  23049.44569818  .00018650  00000-0  12685-2 0  9993
2 45384  53.0540 113.1397 0000974  75.6821 284.4276 15.06375125161913
1 45384U 20019AA  23049.57839456  .00012147  00000-0  83363-3 0  9992
2 45384  53.0529 112.5451 0001298  73.0741 287.0390 15.06369722161931
1 45384U 20019AA  23049.64474232  .00007338  00000-0  51144-3 0  9995
2 45384  53.0524 112.2480 0001391  75.1019 285.0124 15.06368417161944
1 45384U 20019AA  23050.57359842  .00014752  00000-0  10070-2 0  9998
2 45384  53.0518 108.0780 0001436  77.5542 282.5608 15.06407020162089
1 45384U 20019AA  23050.57359842  .00014752  00000-0  10070-2 0  9998
2 45384  53.0518 108.0780 0001436  77.5542 282.5608 15.06407020162089
1 45384U 20019AA  23051.36976073  .00011606  00000-0  79650-3 0  9992
2 45384  53.0527 104.5033 0001567  72.8022 287.3139 15.06412672162202
1 45384U 20019AA  23051.43610783  .00019427  00000-0  13192-2 0  9990
2 45384  53.0524 104.2053 0001351  73.5884 286.5253 15.06408996162216
1 45384U 20019AA  23052.56397472  .00023624  00000-0  15969-2 0  9990
2 45384  53.0518  99.1415 0001410  83.2880 276.8269 15.06461712162385
1 45384U 20019AA  23052.56397472  .00023624  00000-0  15969-2 0  9990
2 45384  53.0518  99.1415 0001410  83.2880 276.8269 15.06461712162385
1 45384U 20019AA  23052.82936430 -.00007053  00000-0 -45485-3 0  9999
2 45384  53.0519  97.9499 0001605 100.7002 259.4168 15.06414749162429
1 45384U 20019AA  23052.82936430 -.00007053  00000-0 -45485-3 0  9999
2 45384  53.0519  97.9499 0001605 100.7002 259.4168 15.06414749162429
1 45384U 20019AA  23053.42648974 -.00006925  00000-0 -44651-3 0  9990
2 45384  53.0527  95.2698 0001851 102.6429 257.4767 15.06391211162518
